NORAD_CAT_ID,OBJECT_NAME,OBJECT_TYPE,EPOCH,MEAN_MOTION,ECCENTRICITY,INCLINATION,RA_OF_ASC_NODE,ARG_OF_PERICENTER,MEAN_ANOMALY,BSTAR,MEAN_MOTION_DOT,MEAN_MOTION_DDOT,TLE_LINE0,TLE_LINE1,TLE_LINE2,SEMIMAJOR_AXIS,PERIOD,APOGEE,PERIGEE,DECAYED
51973.0,STARLINK-3679,PAYLOAD,2022-07-07 22:00:00,15.08864379,0.0001611,53.216,288.0705,48.899,228.4162,-0.0019896,-0.00031834,0.0,0 STARLINK-3679,1 51973U 22025T   22188.91667824 -.00031834  00000-0 -19896-2 0  9996,2 51973  53.2160 288.0705 0001611  48.8990 228.4162 15.08864379  1301,6917.806,95.436,540.785,538.556,0.0
51973.0,STARLINK-3679,PAYLOAD,2022-07-08 10:00:00,15.08878018,0.0001696999999999,53.216,285.825,53.9403,60.8206,-0.0014738,-0.00023692,0.0,0 STARLINK-3679,1 51973U 22025T   22189.41667824 -.00023692  00000-0 -14738-2 0  9995,2 51973  53.2160 285.8250 0001697  53.9403  60.8206 15.08878018 19964,6917.764,95.435,540.803,538.455,0.0
51973.0,STARLINK-3679,PAYLOAD,2022-07-08 12:40:23,15.08853725,0.0001686,53.2181,285.3253,56.6933,303.4221,0.00017264,2.462e-05,0.0,0 STARLINK-3679,1 51973U 22025T   22189.52805123  .00002462  00000-0  17264-3 0  9991,2 51973  53.2181 285.3253 0001686  56.6933 303.4221 15.08853725 18882,6917.8380000000025,95.437,540.87,538.5369999999998,0.0
51973.0,STARLINK-3679,PAYLOAD,2022-07-08 22:00:01,15.08909961,0.0001717,53.216,283.5801,48.7168,263.5483,-0.0039424,-0.00062606,0.0,0 STARLINK-3679,1 51973U 22025T   22189.91668981 -.00062606  00000-0 -39424-2 0  9992,2 51973  53.2160 283.5801 0001717  48.7168 263.5483 15.08909961 20035,6917.667,95.433,540.719,538.344,0.0
51973.0,STARLINK-3679,PAYLOAD,2022-07-09 08:00:01,15.08838751,0.0001872,53.2174,281.7174,53.6145,2.9806,-0.00018456,-3.224e-05,0.0,0 STARLINK-3679,1 51973U 22025T   22190.33334491 -.00003224  00000-0 -18456-3 0  9990,2 51973  53.2174 281.7174 0001872  53.6145   2.9806 15.08838751 20093,6917.884,95.438,541.044,538.4540000000002,0.0
51973.0,STARLINK-3679,PAYLOAD,2022-07-09 14:00:01,15.08825806,0.000172,53.2166,280.5883,45.5151,289.8278,0.00087148,0.00013603,0.0,0 STARLINK-3679,1 51973U 22025T   22190.58334491  .00013603  00000-0  87148-3 0  9991,2 51973  53.2166 280.5883 0001720  45.5151 289.8278 15.08825806  1306,6917.924,95.438,540.979,538.599,0.0
51973.0,STARLINK-3679,PAYLOAD,2022-07-09 16:00:00,15.08812479,0.000171,53.2166,280.2144,44.0469,24.196,0.0030205,0.00048075,0.0,0 STARLINK-3679,1 51973U 22025T   22190.66667824  .00048075  00000-0  30205-2 0  9991,2 51973  53.2166 280.2144 0001710  44.0469  24.1960 15.08812479 20141,6917.965,95.439,541.012,538.6469999999998,0.0
51973.0,STARLINK-3679,PAYLOAD,2022-07-09 20:00:01,15.08850535,0.0001678,53.2164,279.4655,43.8422,210.1839,-0.00086173,-0.0001398,0.0,0 STARLINK-3679,1 51973U 22025T   22190.83334491 -.00013980  00000-0 -86173-3 0  9996,2 51973  53.2164 279.4655 0001678  43.8422 210.1839 15.08850535  1309,6917.848000000001,95.437,540.874,538.552,0.0
51973.0,STARLINK-3679,PAYLOAD,2022-07-10 06:00:00,15.08850403,0.0001619,53.2171,277.5937,52.2634,306.2615,-0.0012343,-0.00019884,0.0,0 STARLINK-3679,1 51973U 22025T   22191.25001157 -.00019884  00000-0 -12343-2 0  9999,2 51973  53.2171 277.5937 0001619  52.2634 306.2615 15.08850403 20239,6917.849,95.437,540.8340000000002,538.594,0.0
51973.0,STARLINK-3679,PAYLOAD,2022-07-10 14:00:01,15.0881913,0.0001858,53.2171,276.0992,47.5812,322.5455,0.0011132,0.00017463,0.0,0 STARLINK-3679,1 51973U 22025T   22191.58334491  .00017463  00000-0  11132-2 0  9999,2 51973  53.2171 276.0992 0001858  47.5812 322.5455 15.08819130  1306,6917.944,95.439,541.095,538.524,0.0
51973.0,STARLINK-3679,PAYLOAD,2022-07-10 22:00:00,15.08845451,0.0001767,53.217,274.6017,48.6049,333.0916,-0.0016504999999999,-0.00026464,0.0,0 STARLINK-3679,1 51973U 22025T   22191.91667824 -.00026464  00000-0 -16505-2 0  9997,2 51973  53.2170 274.6017 0001767  48.6049 333.0916 15.08845451  1304,6917.864000000001,95.437,540.951,538.506,0.0
51973.0,STARLINK-3679,PAYLOAD,2022-07-11 06:00:00,15.08841028,0.0001686,53.2174,273.1049,53.1582,340.1272,0.0012179,0.00019149,0.0,0 STARLINK-3679,1 51973U 22025T   22192.25001157  .00019149  00000-0  12179-2 0  9999,2 51973  53.2174 273.1049 0001686  53.1582 340.1272 15.08841028 20389,6917.877,95.437,540.909,538.576,0.0
51973.0,STARLINK-3679,PAYLOAD,2022-07-11 14:00:01,15.08846258,0.0001824,53.2173,271.6103,45.9021,358.9872,-0.0018907,-0.00030258,0.0,0 STARLINK-3679,1 51973U 22025T   22192.58334491 -.00030258  00000-0 -18907-2 0  9996,2 51973  53.2173 271.6103 0001824  45.9021 358.9872 15.08846258  1307,6917.861,95.437,540.988,538.464,0.0
51973.0,STARLINK-3679,PAYLOAD,2022-07-11 22:00:00,15.08833855,0.0001654,53.2171,270.1128,46.1328,10.3462,-0.0013186,-0.00021209,0.0,0 STARLINK-3679,1 51973U 22025T   22192.91667824 -.00021209  00000-0 -13186-2 0  9992,2 51973  53.2171 270.1128 0001654  46.1328  10.3462 15.08833855  1303,6917.899,95.438,540.908,538.62,0.0
51973.0,STARLINK-3679,PAYLOAD,2022-07-12 14:00:01,15.08833241,0.0001757,53.217,267.1216,44.03100000000001,35.6359,0.0020956,0.00033215,0.0,0 STARLINK-3679,1 51973U 22025T   22193.58334491  .00033215  00000-0  20956-2 0  9998,2 51973  53.2170 267.1216 0001757  44.0310  35.6359 15.08833241 20594,6917.901,95.438,540.982,538.5509999999998,0.0
51973.0,STARLINK-3679,PAYLOAD,2022-07-12 22:00:00,15.08870294,0.0001639,53.2166,265.6239,46.7445,44.5293,-0.00071088,-0.00011593,0.0,0 STARLINK-3679,1 51973U 22025T   22193.91667824 -.00011593  00000-0 -71088-3 0  9994,2 51973  53.2166 265.6239 0001639  46.7445  44.5293 15.08870294  1307,6917.788000000001,95.436,540.7869999999998,538.519,0.0
51973.0,STARLINK-3679,PAYLOAD,2022-07-13 14:00:01,15.08817013,0.000178,53.2162,262.6327,45.0278,69.4897,0.00058745,9.068e-05,0.0,0 STARLINK-3679,1 51973U 22025T   22194.58334491  .00009068  00000-0  58745-3 0  9996,2 51973  53.2162 262.6327 0001780  45.0278  69.4897 15.08817013  1307,6917.951,95.439,541.047,538.5840000000002,0.0
51973.0,STARLINK-3679,PAYLOAD,2022-07-13 22:00:00,15.08811148,0.000168,53.2158,261.135,49.8449,76.2448,-0.0012683,-0.00020401,0.0,0 STARLINK-3679,1 51973U 22025T   22194.91667824 -.00020401  00000-0 -12683-2 0  9998,2 51973  53.2158 261.1350 0001680  49.8449  76.2448 15.08811148  1304,6917.969,95.439,540.996,538.6709999999998,0.0
51973.0,STARLINK-3679,PAYLOAD,2022-07-14 14:00:01,15.08786964,0.0001853,53.2153,258.144,47.0851,102.1123,0.0026386,0.00041894,0.0,0 STARLINK-3679,1 51973U 22025T   22195.58334491  .00041894  00000-0  26386-2 0  9995,2 51973  53.2153 258.1440 0001853  47.0851 102.1123 15.08786964 20895,6918.043000000002,95.441,541.189,538.626,0.0
51973.0,STARLINK-3679,PAYLOAD,2022-07-14 22:00:00,15.08814107,0.000172,53.2149,256.6461,50.6912,110.0601,-1.146e-05,-4.7e-06,0.0,0 STARLINK-3679,1 51973U 22025T   22195.91667824 -.00000470  00000-0 -11460-4 0  9997,2 51973  53.2149 256.6461 0001720  50.6912 110.0601 15.08814107  1302,6917.96,95.439,541.014,538.635,0.0
51973.0,STARLINK-3679,PAYLOAD,2022-07-15 06:00:00,15.08833391,0.0001759,53.2149,255.1499,53.51300000000001,118.7978,-0.00061701,-0.00010093,0.0,0 STARLINK-3679,1 51973U 22025T   22196.25001157 -.00010093  00000-0 -61701-3 0  9990,2 51973  53.2149 255.1499 0001759  53.5130 118.7978 15.08833391 20997,6917.901,95.438,540.982,538.549,0.0
51973.0,STARLINK-3679,PAYLOAD,2022-07-15 14:00:01,15.08803905,0.0001914,53.2147,253.6549,46.5581,137.3409,0.0031534,0.00050207,0.0,0 STARLINK-3679,1 51973U 22025T   22196.58334491  .00050207  00000-0  31534-2 0  9995,2 51973  53.2147 253.6549 0001914  46.5581 137.3409 15.08803905  1307,6917.991,95.44,541.18,538.5319999999998,0.0
51973.0,STARLINK-3679,PAYLOAD,2022-07-15 22:00:00,15.08830878,0.0001776,53.2146,252.1567,50.1454,145.3329,0.00053402,8.219e-05,0.0,0 STARLINK-3679,1 51973U 22025T   22196.91667824  .00008219  00000-0  53402-3 0  9996,2 51973  53.2146 252.1567 0001776  50.1454 145.3329 15.08830878  1305,6917.908,95.438,541.002,538.545,0.0
51973.0,STARLINK-3679,PAYLOAD,2022-07-16 06:00:00,15.08855007,0.0001839,53.2146,250.6605,52.7663,154.2946,-0.00076931,-0.00012516,0.0,0 STARLINK-3679,1 51973U 22025T   22197.25001157 -.00012516  00000-0 -76931-3 0  9994,2 51973  53.2146 250.6605 0001839  52.7663 154.2946 15.08855007 21140,6917.835,95.437,540.972,538.427,0.0
51973.0,STARLINK-3679,PAYLOAD,2022-07-16 14:00:01,15.08825319,0.0001998,53.2146,249.1654,46.3408,172.3346,0.0034242,0.00054609,0.0,0 STARLINK-3679,1 51973U 22025T   22197.58334491  .00054609  00000-0  34242-2 0  9995,2 51973  53.2146 249.1654 0001998  46.3408 172.3346 15.08825319  1303,6917.925,95.438,541.172,538.408,0.0
51973.0,STARLINK-3679,PAYLOAD,2022-07-16 22:00:00,15.08851778,0.0001841,53.2148,247.667,49.7177,180.5677,0.0011627,0.00018271,0.0,0 STARLINK-3679,1 51973U 22025T   22197.91667824  .00018271  00000-0  11627-2 0  9998,2 51973  53.2148 247.6670 0001841  49.7177 180.5677 15.08851778 21244,6917.844,95.437,540.9830000000002,538.436,0.0
51973.0,STARLINK-3679,PAYLOAD,2022-07-17 14:00:01,15.08834422,0.0001949,53.215,244.6757,43.1705,210.3524,0.0010849,0.00017018,0.0,0 STARLINK-3679,1 51973U 22025T   22198.58334491  .00017018  00000-0  10849-2 0  9996,2 51973  53.2150 244.6757 0001949  43.1705 210.3524 15.08834422 21345,6917.897,95.438,541.111,538.414,0.0
51973.0,STARLINK-3679,PAYLOAD,2022-07-17 22:00:00,15.08813421,0.0001744,53.2153,243.1774,45.4637,219.6538,0.00107,0.0001676999999999,0.0,0 STARLINK-3679,1 51973U 22025T   22198.91667824  .00016770  00000-0  10700-2 0  9992,2 51973  53.2153 243.1774 0001744  45.4637 219.6538 15.08813421  1300,6917.962,95.439,541.033,538.62,0.0
51973.0,STARLINK-3679,PAYLOAD,2022-07-18 06:00:00,15.08842811,0.0001796,53.2155,241.6814,46.8286,229.8563,-0.0012081,-0.00019465,0.0,0 STARLINK-3679,1 51973U 22025T   22199.25001157 -.00019465  00000-0 -12081-2 0  9991,2 51973  53.2155 241.6814 0001796  46.8286 229.8563 15.08842811 21445,6917.871999999999,95.437,540.979,538.494,0.0
